{
"type": "FeatureCollection",
"name": "fields_with_crops",
"crs": { "type": "name", "properties": { "name": "urn:ogc:def:crs:OGC:1.3:CRS84" } },
"features": [
{ "type": "Feature", "properties": { "field_id": "FIELD_0001", "region": "corn_belt", "original_crop": "corn", "area_acres": 6353.1584462352384, "cdl_crop_2023": null, "crop_code": null, "dominant_pct": null, "total_pixels": null }, "geometry": { "type": "Polygon", "coordinates": [ [ [ -96.173669320340821, 42.771240702158941 ], [ -96.157634882335913, 42.771240702158941 ], [ -96.157634882335913, 42.78727514016385 ], [ -96.173669320340821, 42.78727514016385 ], [ -96.173669320340821, 42.771240702158941 ] ] ] } },
{ "type": "Feature", "properties": { "field_id": "FIELD_0002", "region": "corn_belt", "original_crop": "corn", "area_acres": 229.19273128977736, "cdl_crop_2023": null, "crop_code": null, "dominant_pct": null, "total_pixels": null }, "geometry": { "type": "Polygon", "coordinates": [ [ [ -96.441577549147496, 38.934589090145103 ], [ -96.438532044128465, 38.934589090145103 ], [ -96.438532044128465, 38.937634595164134 ], [ -96.441577549147496, 38.937634595164134 ], [ -96.441577549147496, 38.934589090145103 ] ] ] } },
{ "type": "Feature", "properties": { "field_id": "FIELD_0003", "region": "corn_belt", "original_crop": "soybeans", "area_acres": 4648.7552279016973, "cdl_crop_2023": null, "crop_code": null, "dominant_pct": null, "total_pixels": null }, "geometry": { "type": "Polygon", "coordinates": [ [ [ -96.578189817037128, 39.995393670577592 ], [ -96.564473824524043, 39.995393670577592 ], [ -96.564473824524043, 40.009109663090676 ], [ -96.578189817037128, 40.009109663090676 ], [ -96.578189817037128, 39.995393670577592 ] ] ] } },
{ "type": "Feature", "properties": { "field_id": "FIELD_0004", "region": "corn_belt", "original_crop": "corn", "area_acres": 837.61050941398344, "cdl_crop_2023": null, "crop_code": null, "dominant_pct": null, "total_pixels": null }, "geometry": { "type": "Polygon", "coordinates": [ [ [ -89.678484643991894, 43.816548060975862 ], [ -89.672662539999678, 43.816548060975862 ], [ -89.672662539999678, 43.822370164968078 ], [ -89.678484643991894, 43.822370164968078 ], [ -89.678484643991894, 43.816548060975862 ] ] ] } },
{ "type": "Feature", "properties": { "field_id": "FIELD_0005", "region": "corn_belt", "original_crop": "soybeans", "area_acres": 4182.3518216141374, "cdl_crop_2023": "Soybeans", "crop_code": 5.0, "dominant_pct": 36.8, "total_pixels": 1682.0 }, "geometry": { "type": "Polygon", "coordinates": [ [ [ -91.831689782167217, 43.946764477302906 ], [ -91.818680025278439, 43.946764477302906 ], [ -91.818680025278439, 43.959774234191698 ], [ -91.831689782167217, 43.959774234191698 ], [ -91.831689782167217, 43.946764477302906 ] ] ] } },
{ "type": "Feature", "properties": { "field_id": "FIELD_0006", "region": "corn_belt", "original_crop": "corn", "area_acres": 4184.663707509324, "cdl_crop_2023": "Soybeans", "crop_code": 5.0, "dominant_pct": 47.2, "total_pixels": 1799.0 }, "geometry": { "type": "Polygon", "coordinates": [ [ [ -95.09421527407207, 40.58516343580019 ], [ -95.081201921967079, 40.58516343580019 ], [ -95.081201921967079, 40.598176787905196 ], [ -95.09421527407207, 40.598176787905196 ], [ -95.09421527407207, 40.58516343580019 ] ] ] } },
{ "type": "Feature", "properties": { "field_id": "FIELD_0007", "region": "corn_belt", "original_crop": "soybeans", "area_acres": 946.77599816271788, "cdl_crop_2023": "Grassland/Herbaceous", "crop_code": 141.0, "dominant_pct": 37.0, "total_pixels": 414.0 }, "geometry": { "type": "Polygon", "coordinates": [ [ [ -88.265539753649279, 38.276899037217817 ], [ -88.259349869521543, 38.276899037217817 ], [ -88.259349869521543, 38.283088921345566 ], [ -88.265539753649279, 38.283088921345566 ], [ -88.265539753649279, 38.276899037217817 ] ] ] } },
{ "type": "Feature", "properties": { "field_id": "FIELD_0008", "region": "corn_belt", "original_crop": "soybeans", "area_acres": 3130.8866010397323, "cdl_crop_2023": null, "crop_code": null, "dominant_pct": null, "total_pixels": null }, "geometry": { "type": "Polygon", "coordinates": [ [ [ -96.008890288362124, 42.705427658412354 ], [ -95.997634068470688, 42.705427658412354 ], [ -95.997634068470688, 42.716683878303805 ], [ -96.008890288362124, 42.716683878303805 ], [ -96.008890288362124, 42.705427658412354 ] ] ] } },
{ "type": "Feature", "properties": { "field_id": "FIELD_0009", "region": "corn_belt", "original_crop": "soybeans", "area_acres": 5014.6401265311306, "cdl_crop_2023": "Grassland/Herbaceous", "crop_code": 141.0, "dominant_pct": 62.5, "total_pixels": 2116.0 }, "geometry": { "type": "Polygon", "coordinates": [ [ [ -89.407718700484082, 40.79345459164059 ], [ -89.393473164789498, 40.79345459164059 ], [ -89.393473164789498, 40.807700127335174 ], [ -89.407718700484082, 40.807700127335174 ], [ -89.407718700484082, 40.79345459164059 ] ] ] } },
{ "type": "Feature", "properties": { "field_id": "FIELD_0010", "region": "corn_belt", "original_crop": "corn", "area_acres": 9282.2111113429601, "cdl_crop_2023": "Soybeans", "crop_code": 5.0, "dominant_pct": 51.9, "total_pixels": 4044.0 }, "geometry": { "type": "Polygon", "coordinates": [ [ [ -88.52083531576433, 38.380618869614004 ], [ -88.501453939168996, 38.380618869614004 ], [ -88.501453939168996, 38.400000246209352 ], [ -88.52083531576433, 38.400000246209352 ], [ -88.52083531576433, 38.380618869614004 ] ] ] } },
{ "type": "Feature", "properties": { "field_id": "FIELD_0011", "region": "corn_belt", "original_crop": "soybeans", "area_acres": 936.46588577163686, "cdl_crop_2023": null, "crop_code": null, "dominant_pct": null, "total_pixels": null }, "geometry": { "type": "Polygon", "coordinates": [ [ [ -97.843415522228455, 40.309420970808894 ], [ -97.837259433367265, 40.309420970808894 ], [ -97.837259433367265, 40.315577059670098 ], [ -97.843415522228455, 40.315577059670098 ], [ -97.843415522228455, 40.309420970808894 ] ] ] } },
{ "type": "Feature", "properties": { "field_id": "FIELD_0012", "region": "corn_belt", "original_crop": "soybeans", "area_acres": 2942.9656063192961, "cdl_crop_2023": null, "crop_code": null, "dominant_pct": null, "total_pixels": null }, "geometry": { "type": "Polygon", "coordinates": [ [ [ -96.78507424374321, 40.635458370246603 ], [ -96.774161059361219, 40.635458370246603 ], [ -96.774161059361219, 40.646371554628608 ], [ -96.78507424374321, 40.646371554628608 ], [ -96.78507424374321, 40.635458370246603 ] ] ] } },
{ "type": "Feature", "properties": { "field_id": "FIELD_0013", "region": "corn_belt", "original_crop": "corn", "area_acres": 688.95539038989307, "cdl_crop_2023": null, "crop_code": null, "dominant_pct": null, "total_pixels": null }, "geometry": { "type": "Polygon", "coordinates": [ [ [ -94.092034049057688, 39.03754779625654 ], [ -94.086753799477506, 39.03754779625654 ], [ -94.086753799477506, 39.042828045836721 ], [ -94.092034049057688, 39.042828045836721 ], [ -94.092034049057688, 39.03754779625654 ] ] ] } },
{ "type": "Feature", "properties": { "field_id": "FIELD_0014", "region": "corn_belt", "original_crop": "soybeans", "area_acres": 3464.5209668175539, "cdl_crop_2023": null, "crop_code": null, "dominant_pct": null, "total_pixels": null }, "geometry": { "type": "Polygon", "coordinates": [ [ [ -92.805240180735979, 39.864346064022371 ], [ -92.793399395707809, 39.864346064022371 ], [ -92.793399395707809, 39.876186849050555 ], [ -92.805240180735979, 39.876186849050555 ], [ -92.805240180735979, 39.864346064022371 ] ] ] } },
{ "type": "Feature", "properties": { "field_id": "FIELD_0015", "region": "corn_belt", "original_crop": "soybeans", "area_acres": 2518.5134147530703, "cdl_crop_2023": "Code_26", "crop_code": 26.0, "dominant_pct": 59.7, "total_pixels": 1103.0 }, "geometry": { "type": "Polygon", "coordinates": [ [ [ -89.582200041250346, 38.182831967533026 ], [ -89.572104466849694, 38.182831967533026 ], [ -89.572104466849694, 38.192927541933678 ], [ -89.582200041250346, 38.192927541933678 ], [ -89.582200041250346, 38.182831967533026 ] ] ] } },
{ "type": "Feature", "properties": { "field_id": "FIELD_0016", "region": "corn_belt", "original_crop": "soybeans", "area_acres": 8543.1008384709658, "cdl_crop_2023": "Corn", "crop_code": 1.0, "dominant_pct": 53.9, "total_pixels": 3461.0 }, "geometry": { "type": "Polygon", "coordinates": [ [ [ -92.03029708000436, 43.359667234450683 ], [ -92.011703343773931, 43.359667234450683 ], [ -92.011703343773931, 43.378260970681097 ], [ -92.03029708000436, 43.378260970681097 ], [ -92.03029708000436, 43.359667234450683 ] ] ] } },
{ "type": "Feature", "properties": { "field_id": "FIELD_0017", "region": "corn_belt", "original_crop": "soybeans", "area_acres": 9205.4741415094741, "cdl_crop_2023": "Corn", "crop_code": 1.0, "dominant_pct": 29.3, "total_pixels": 3839.0 }, "geometry": { "type": "Polygon", "coordinates": [ [ [ -92.801307947960908, 41.413013298213258 ], [ -92.782006851522624, 41.413013298213258 ], [ -92.782006851522624, 41.432314394651542 ], [ -92.801307947960908, 41.432314394651542 ], [ -92.801307947960908, 41.413013298213258 ] ] ] } },
{ "type": "Feature", "properties": { "field_id": "FIELD_0018", "region": "corn_belt", "original_crop": "corn", "area_acres": 7072.012629748654, "cdl_crop_2023": null, "crop_code": null, "dominant_pct": null, "total_pixels": null }, "geometry": { "type": "Polygon", "coordinates": [ [ [ -95.294968319843406, 40.323605100554531 ], [ -95.278051044678676, 40.323605100554531 ], [ -95.278051044678676, 40.34052237571926 ], [ -95.294968319843406, 40.34052237571926 ], [ -95.294968319843406, 40.323605100554531 ] ] ] } },
{ "type": "Feature", "properties": { "field_id": "FIELD_0019", "region": "corn_belt", "original_crop": "soybeans", "area_acres": 1199.7662742679961, "cdl_crop_2023": "Grassland/Herbaceous", "crop_code": 141.0, "dominant_pct": 63.5, "total_pixels": 485.0 }, "geometry": { "type": "Polygon", "coordinates": [ [ [ -91.933141515771368, 43.788047850946626 ], [ -91.92617353049495, 43.788047850946626 ], [ -91.92617353049495, 43.79501583622303 ], [ -91.933141515771368, 43.79501583622303 ], [ -91.933141515771368, 43.788047850946626 ] ] ] } },
{ "type": "Feature", "properties": { "field_id": "FIELD_0020", "region": "corn_belt", "original_crop": "corn", "area_acres": 9652.2896749921729, "cdl_crop_2023": null, "crop_code": null, "dominant_pct": null, "total_pixels": null }, "geometry": { "type": "Polygon", "coordinates": [ [ [ -97.264375545631694, 42.803299902094835 ], [ -97.244611580772883, 42.803299902094835 ], [ -97.244611580772883, 42.823063866953646 ], [ -97.264375545631694, 42.823063866953646 ], [ -97.264375545631694, 42.803299902094835 ] ] ] } },
{ "type": "Feature", "properties": { "field_id": "FIELD_0021", "region": "corn_belt", "original_crop": "soybeans", "area_acres": 125.47955478031986, "cdl_crop_2023": null, "crop_code": null, "dominant_pct": null, "total_pixels": null }, "geometry": { "type": "Polygon", "coordinates": [ [ [ -95.066244971224052, 40.368162390648983 ], [ -95.06399153441518, 40.368162390648983 ], [ -95.06399153441518, 40.370415827457855 ], [ -95.066244971224052, 40.370415827457855 ], [ -95.066244971224052, 40.368162390648983 ] ] ] } },
{ "type": "Feature", "properties": { "field_id": "FIELD_0022", "region": "corn_belt", "original_crop": "corn", "area_acres": 6233.6147414282441, "cdl_crop_2023": "Grass/Pasture", "crop_code": 176.0, "dominant_pct": 37.8, "total_pixels": 2570.0 }, "geometry": { "type": "Polygon", "coordinates": [ [ [ -90.7178697527103, 42.233202629965525 ], [ -90.701986886469939, 42.233202629965525 ], [ -90.701986886469939, 42.249085496205872 ], [ -90.7178697527103, 42.249085496205872 ], [ -90.7178697527103, 42.233202629965525 ] ] ] } },
{ "type": "Feature", "properties": { "field_id": "FIELD_0023", "region": "corn_belt", "original_crop": "corn", "area_acres": 8429.1126336008147, "cdl_crop_2023": "Grass/Pasture", "crop_code": 176.0, "dominant_pct": 43.7, "total_pixels": 3402.0 }, "geometry": { "type": "Polygon", "coordinates": [ [ [ -91.498464382060448, 43.5485706340002 ], [ -91.479995107900649, 43.5485706340002 ], [ -91.479995107900649, 43.567039908159984 ], [ -91.498464382060448, 43.567039908159984 ], [ -91.498464382060448, 43.5485706340002 ] ] ] } },
{ "type": "Feature", "properties": { "field_id": "FIELD_0024", "region": "corn_belt", "original_crop": "corn", "area_acres": 244.26496101713565, "cdl_crop_2023": "Grassland/Herbaceous", "crop_code": 141.0, "dominant_pct": 76.9, "total_pixels": 104.0 }, "geometry": { "type": "Polygon", "coordinates": [ [ [ -94.692591776626074, 41.73821673581277 ], [ -94.689447726320935, 41.73821673581277 ], [ -94.689447726320935, 41.741360786117923 ], [ -94.692591776626074, 41.741360786117923 ], [ -94.692591776626074, 41.73821673581277 ] ] ] } },
{ "type": "Feature", "properties": { "field_id": "FIELD_0025", "region": "corn_belt", "original_crop": "corn", "area_acres": 3950.0920955700585, "cdl_crop_2023": "Soybeans", "crop_code": 5.0, "dominant_pct": 71.2, "total_pixels": 1635.0 }, "geometry": { "type": "Polygon", "coordinates": [ [ [ -91.347098113914399, 42.006725835892269 ], [ -91.334454753735656, 42.006725835892269 ], [ -91.334454753735656, 42.019369196071011 ], [ -91.347098113914399, 42.019369196071011 ], [ -91.347098113914399, 42.006725835892269 ] ] ] } }
]
}
